[{"OBJECT_NAME":"IONOSFERA-M 2","OBJECT_ID":"2024-199B","EPOCH":"2026-03-09T22:15:30.586176","MEAN_MOTION":14.22737815,"ECCENTRICITY":3.184e-5,"INCLINATION":98.7324,"RA_OF_ASC_NODE":302.9812,"ARG_OF_PERICENTER":122.4874,"MEAN_ANOMALY":237.6335,"EPHEMERIS_TYPE":0,"CLASSIFICATION_TYPE":"U","NORAD_CAT_ID":61736,"ELEMENT_SET_NO":999,"REV_AT_EPOCH":11671,"BSTAR":4.5235484e-5,"MEAN_MOTION_DOT":5.7e-7,"MEAN_MOTION_DDOT":0},{"OBJECT_NAME":"OPS 4078 (DMSP 4B F2)","OBJECT_ID":"1968-092A","EPOCH":"2026-03-09T21:16:17.407776","MEAN_MOTION":14.28218921,"ECCENTRICITY":0.00286708,"INCLINATION":98.5563,"RA_OF_ASC_NODE":193.3095,"ARG_OF_PERICENTER":258.2617,"MEAN_ANOMALY":101.5347,"EPHEMERIS_TYPE":0,"CLASSIFICATION_TYPE":"U","NORAD_CAT_ID":3510,"ELEMENT_SET_NO":999,"REV_AT_EPOCH":98307,"BSTAR":9.5982727e-5,"MEAN_MOTION_DOT":1.97e-6,"MEAN_MOTION_DDOT":0}]
